start=new Date('2023-05-21T00:00:00.000Z').valueOf();
sats=[{"ARG_OF_PERICENTER":"247.8235","MEAN_MOTION_DOT":"-0.00230955","OBJECT_TYPE":"PAYLOAD","PERIAPSIS":"338.444","OBJECT_NAME":"STARLINK-6328","ELEMENT_SET_NO":"999","INCLINATION":"43.0068","ECCENTRICITY":"0.00019630","RCS_SIZE":null,"CENTER_NAME":"EARTH","DECAY_DATE":null,"GP_ID":"232213442","MEAN_MOTION":"15.76713267","FILE":"3913175","SITE":"AFETR","TLE_LINE2":"2 56523  43.0068  48.2681 0001963 247.8235 112.2426 15.76713267  2154","EPOCH":"2023-05-20T04:30:52.179552","PERIOD":"91.329","OBJECT_ID":"2023-065W","EPHEMERIS_TYPE":"0","TLE_LINE1":"1 56523U 23065W   23140.18810393 -.00230955  00000-0 -14318-2 0  9995","BSTAR":"-0.00143180000000","MEAN_MOTION_DDOT":"0.0000000000000","CLASSIFICATION_TYPE":"U","MEAN_ELEMENT_THEORY":"SGP4","TIME_SYSTEM":"UTC","RA_OF_ASC_NODE":"48.2681","REV_AT_EPOCH":"215","SEMIMAJOR_AXIS":"6717.897","MEAN_ANOMALY":"112.2426","REF_FRAME":"TEME","NORAD_CAT_ID":"56523","APOAPSIS":"341.081","COUNTRY_CODE":"US","LAUNCH_DATE":"2023-05-14"},{"MEAN_MOTION_DDOT":"0.0000000000000","TLE_LINE1":"1 56524U 23065X   23140.18830460 -.00211968  00000-0 -13154-2 0  9993","BSTAR":"-0.00131540000000","MEAN_ELEMENT_THEORY":"SGP4","CLASSIFICATION_TYPE":"U","EPOCH":"2023-05-20T04:31:09.517440","TLE_LINE2":"2 56524  43.0067  48.2707 0001499 272.4676  87.6022 15.76639009  2158","EPHEMERIS_TYPE":"0","PERIOD":"91.334","OBJECT_ID":"2023-065X","LAUNCH_DATE":"2023-05-14","COUNTRY_CODE":"US","APOAPSIS":"340.980","NORAD_CAT_ID":"56524","RA_OF_ASC_NODE":"48.2707","TIME_SYSTEM":"UTC","REF_FRAME":"TEME","MEAN_ANOMALY":"87.6022","SEMIMAJOR_AXIS":"6718.108","REV_AT_EPOCH":"215","OBJECT_TYPE":"PAYLOAD","PERIAPSIS":"338.966","ARG_OF_PERICENTER":"272.4676","MEAN_MOTION_DOT":"-0.00211968","DECAY_DATE":null,"CENTER_NAME":"EARTH","RCS_SIZE":null,"INCLINATION":"43.0067","ECCENTRICITY":"0.00014990","SITE":"AFETR","FILE":"3913175","GP_ID":"232213384","MEAN_MOTION":"15.76639009","OBJECT_NAME":"STARLINK-6323","ELEMENT_SET_NO":"999"},{"MEAN_MOTION_DOT":"-0.00227729","ARG_OF_PERICENTER":"245.8910","OBJECT_TYPE":"PAYLOAD","PERIAPSIS":"338.225","ELEMENT_SET_NO":"999","OBJECT_NAME":"STARLINK-6329","GP_ID":"232213494","MEAN_MOTION":"15.76754410","SITE":"AFETR","FILE":"3913175","ECCENTRICITY":"0.00021150","INCLINATION":"43.0077","DECAY_DATE":null,"RCS_SIZE":null,"CENTER_NAME":"EARTH","OBJECT_ID":"2023-065Y","PERIOD":"91.327","EPHEMERIS_TYPE":"0","TLE_LINE2":"2 56525  43.0077  48.2672 0002115 245.8910 114.1738 15.76754410  2156","EPOCH":"2023-05-20T04:30:40.667616","CLASSIFICATION_TYPE":"U","MEAN_ELEMENT_THEORY":"SGP4","TLE_LINE1":"1 56525U 23065Y   23140.18797069 -.00227729  00000-0 -14086-2 0  9998","MEAN_MOTION_DDOT":"0.0000000000000","BSTAR":"-0.00140860000000","MEAN_ANOMALY":"114.1738","REV_AT_EPOCH":"215","SEMIMAJOR_AXIS":"6717.780","REF_FRAME":"TEME","RA_OF_ASC_NODE":"48.2672","TIME_SYSTEM":"UTC","COUNTRY_CODE":"US","NORAD_CAT_ID":"56525","APOAPSIS":"341.066","LAUNCH_DATE":"2023-05-14"},{"MEAN_ELEMENT_THEORY":"SGP4","CLASSIFICATION_TYPE":"U","BSTAR":"-0.00123060000000","TLE_LINE1":"1 56526U 23065Z   23140.18816875 -.00199186  00000-0 -12306-2 0  9994","MEAN_MOTION_DDOT":"0.0000000000000","EPHEMERIS_TYPE":"0","OBJECT_ID":"2023-065Z","PERIOD":"91.330","EPOCH":"2023-05-20T04:30:57.780000","TLE_LINE2":"2 56526  43.0067  48.2700 0001938 260.5291  99.5359 15.76700125  2155","LAUNCH_DATE":"2023-05-14","APOAPSIS":"341.102","NORAD_CAT_ID":"56526","COUNTRY_CODE":"US","REF_FRAME":"TEME","SEMIMAJOR_AXIS":"6717.935","REV_AT_EPOCH":"215","MEAN_ANOMALY":"99.5359","TIME_SYSTEM":"UTC","RA_OF_ASC_NODE":"48.2700","OBJECT_TYPE":"PAYLOAD","PERIAPSIS":"338.498","MEAN_MOTION_DOT":"-0.00199186","ARG_OF_PERICENTER":"260.5291","FILE":"3913175","SITE":"AFETR","GP_ID":"232213330","MEAN_MOTION":"15.76700125","CENTER_NAME":"EARTH","RCS_SIZE":null,"DECAY_DATE":null,"INCLINATION":"43.0067","ECCENTRICITY":"0.00019380","ELEMENT_SET_NO":"999","OBJECT_NAME":"STARLINK-6317"},{"PERIAPSIS":"338.405","OBJECT_TYPE":"PAYLOAD","MEAN_MOTION_DOT":"-0.00222620","ARG_OF_PERICENTER":"252.6404","GP_ID":"232213209","MEAN_MOTION":"15.76774254","FILE":"3913175","SITE":"AFETR","INCLINATION":"43.0076","ECCENTRICITY":"0.00017620","CENTER_NAME":"EARTH","RCS_SIZE":null,"DECAY_DATE":null,"ELEMENT_SET_NO":"999","OBJECT_NAME":"STARLINK-6335","CLASSIFICATION_TYPE":"U","MEAN_ELEMENT_THEORY":"SGP4","TLE_LINE1":"1 56527U 23065AA  23140.18790378 -.00222620  00000-0 -13750-2 0  9998","MEAN_MOTION_DDOT":"0.0000000000000","BSTAR":"-0.00137500000000","OBJECT_ID":"2023-065AA","PERIOD":"91.326","EPHEMERIS_TYPE":"0","TLE_LINE2":"2 56527  43.0076  48.2669 0001762 252.6404 107.4273 15.76774254  2151","EPOCH":"2023-05-20T04:30:34.886592","NORAD_CAT_ID":"56527","APOAPSIS":"340.773","COUNTRY_CODE":"US","LAUNCH_DATE":"2023-05-14","REV_AT_EPOCH":"215","SEMIMAJOR_AXIS":"6717.724","MEAN_ANOMALY":"107.4273","REF_FRAME":"TEME","TIME_SYSTEM":"UTC","RA_OF_ASC_NODE":"48.2669"},{"REF_FRAME":"TEME","MEAN_ANOMALY":"88.9013","SEMIMAJOR_AXIS":"6717.781","REV_AT_EPOCH":"215","RA_OF_ASC_NODE":"48.2678","TIME_SYSTEM":"UTC","LAUNCH_DATE":"2023-05-14","COUNTRY_CODE":"US","NORAD_CAT_ID":"56528","APOAPSIS":"340.473","EPHEMERIS_TYPE":"0","OBJECT_ID":"2023-065AB","PERIOD":"91.327","EPOCH":"2023-05-20T04:30:46.527264","TLE_LINE2":"2 56528  43.0075  48.2678 0001231 271.1716  88.9013 15.76754047  2157","MEAN_ELEMENT_THEORY":"SGP4","CLASSIFICATION_TYPE":"U","BSTAR":"-0.00121460000000","TLE_LINE1":"1 56528U 23065AB  23140.18803851 -.00197096  00000-0 -12146-2 0  9996","MEAN_MOTION_DDOT":"0.0000000000000","ELEMENT_SET_NO":"999","OBJECT_NAME":"STARLINK-6337","SITE":"AFETR","FILE":"3913175","MEAN_MOTION":"15.76754047","GP_ID":"232213151","DECAY_DATE":null,"CENTER_NAME":"EARTH","RCS_SIZE":null,"INCLINATION":"43.0075","ECCENTRICITY":"0.00012310","MEAN_MOTION_DOT":"-0.00197096","ARG_OF_PERICENTER":"271.1716","OBJECT_TYPE":"PAYLOAD","PERIAPSIS":"338.820"},{"OBJECT_NAME":"STARLINK-6307","ELEMENT_SET_NO":"999","CENTER_NAME":"EARTH","RCS_SIZE":null,"DECAY_DATE":null,"ECCENTRICITY":"0.00013740","INCLINATION":"43.0072","FILE":"3913175","SITE":"AFETR","MEAN_MOTION":"15.76863660","GP_ID":"232213262","ARG_OF_PERICENTER":"275.0917","MEAN_MOTION_DOT":"-0.00217996","OBJECT_TYPE":"PAYLOAD","PERIAPSIS":"338.412","TIME_SYSTEM":"UTC","RA_OF_ASC_NODE":"48.2661","REF_FRAME":"TEME","REV_AT_EPOCH":"215","SEMIMAJOR_AXIS":"6717.470","MEAN_ANOMALY":"84.9797","LAUNCH_DATE":"2023-05-14","APOAPSIS":"340.258","NORAD_CAT_ID":"56529","COUNTRY_CODE":"US","EPOCH":"2023-05-20T04:30:12.569472","TLE_LINE2":"2 56529  43.0072  48.2661 0001374 275.0917  84.9797 15.76863660  2158","EPHEMERIS_TYPE":"0","PERIOD":"91.321","OBJECT_ID":"2023-065AC","TLE_LINE1":"1 56529U 23065AC  23140.18764548 -.00217996  00000-0 -13404-2 0  9996","MEAN_MOTION_DDOT":"0.0000000000000","BSTAR":"-0.00134040000000","MEAN_ELEMENT_THEORY":"SGP4","CLASSIFICATION_TYPE":"U"},{"OBJECT_NAME":"STARLINK-6318","ELEMENT_SET_NO":"999","INCLINATION":"43.0071","ECCENTRICITY":"0.00011630","DECAY_DATE":null,"RCS_SIZE":null,"CENTER_NAME":"EARTH","MEAN_MOTION":"15.76780786","GP_ID":"232213098","SITE":"AFETR","FILE":"3913175","ARG_OF_PERICENTER":"271.4280","MEAN_MOTION_DOT":"-0.00242223","OBJECT_TYPE":"PAYLOAD","PERIAPSIS":"338.789","RA_OF_ASC_NODE":"48.2666","TIME_SYSTEM":"UTC","MEAN_ANOMALY":"88.6457","REV_AT_EPOCH":"215","SEMIMAJOR_AXIS":"6717.706","REF_FRAME":"TEME","COUNTRY_CODE":"US","APOAPSIS":"340.352","NORAD_CAT_ID":"56530","LAUNCH_DATE":"2023-05-14","TLE_LINE2":"2 56530  43.0071  48.2666 0001163 271.4280  88.6457 15.76780786  2154","EPOCH":"2023-05-20T04:30:29.559168","PERIOD":"91.325","OBJECT_ID":"2023-065AD","EPHEMERIS_TYPE":"0","TLE_LINE1":"1 56530U 23065AD  23140.18784212 -.00242223  00000-0 -14995-2 0  9995","BSTAR":"-0.00149950000000","MEAN_MOTION_DDOT":"0.0000000000000","CLASSIFICATION_TYPE":"U","MEAN_ELEMENT_THEORY":"SGP4"},{"DECAY_DATE":null,"RCS_SIZE":null,"CENTER_NAME":"EARTH","ECCENTRICITY":"0.00015340","INCLINATION":"43.0076","SITE":"AFETR","FILE":"3913175","GP_ID":"232213443","MEAN_MOTION":"15.76891734","OBJECT_NAME":"STARLINK-6280","ELEMENT_SET_NO":"999","OBJECT_TYPE":"PAYLOAD","PERIAPSIS":"338.225","ARG_OF_PERICENTER":"270.9543","MEAN_MOTION_DOT":"-0.00215335","LAUNCH_DATE":"2023-05-14","COUNTRY_CODE":"US","APOAPSIS":"340.286","NORAD_CAT_ID":"56531","RA_OF_ASC_NODE":"48.2644","TIME_SYSTEM":"UTC","REF_FRAME":"TEME","MEAN_ANOMALY":"89.1151","SEMIMAJOR_AXIS":"6717.390","REV_AT_EPOCH":"215","TLE_LINE1":"1 56531U 23065AE  23140.18757900 -.00215335  00000-0 -13219-2 0  9992","BSTAR":"-0.00132190000000","MEAN_MOTION_DDOT":"0.0000000000000","MEAN_ELEMENT_THEORY":"SGP4","CLASSIFICATION_TYPE":"U","EPOCH":"2023-05-20T04:30:06.825600","TLE_LINE2":"2 56531  43.0076  48.2644 0001534 270.9543  89.1151 15.76891734  2157","EPHEMERIS_TYPE":"0","OBJECT_ID":"2023-065AE","PERIOD":"91.319"},{"INCLINATION":"43.0075","ECCENTRICITY":"0.00018050","DECAY_DATE":null,"CENTER_NAME":"EARTH","RCS_SIZE":null,"MEAN_MOTION":"15.76821427","GP_ID":"232213385","SITE":"AFETR","FILE":"3913175","OBJECT_NAME":"STARLINK-6319","ELEMENT_SET_NO":"999","OBJECT_TYPE":"PAYLOAD","PERIAPSIS":"338.243","ARG_OF_PERICENTER":"254.5638","MEAN_MOTION_DOT":"-0.00226358","COUNTRY_CODE":"US","NORAD_CAT_ID":"56532","APOAPSIS":"340.668","LAUNCH_DATE":"2023-05-14","RA_OF_ASC_NODE":"48.2661","TIME_SYSTEM":"UTC","MEAN_ANOMALY":"105.5032","SEMIMAJOR_AXIS":"6717.590","REV_AT_EPOCH":"215","REF_FRAME":"TEME","TLE_LINE1":"1 56532U 23065AF  23140.18777282 -.00226358  00000-0 -13958-2 0  9995","BSTAR":"-0.00139580000000","MEAN_MOTION_DDOT":"0.0000000000000","CLASSIFICATION_TYPE":"U","MEAN_ELEMENT_THEORY":"SGP4","TLE_LINE2":"2 56532  43.0075  48.2661 0001805 254.5638 105.5032 15.76821427  2153","EPOCH":"2023-05-20T04:30:23.571648","OBJECT_ID":"2023-065AF","PERIOD":"91.323","EPHEMERIS_TYPE":"0"}];
